STARLINK-36284          
1 67194U 25304C   26004.83335648  .00170569  00000+0  27333-2 0  9990
2 67194  70.0000 342.3864 0003109 250.7971 221.8514 15.52344381  4182
STARLINK-36291          
1 67195U 25304D   26004.83335648 -.00010332  00000+0 -16546-3 0  9999
2 67195  69.9999 342.3843 0003416 259.9115 214.5963 15.52513693  4187
STARLINK-36239          
1 67196U 25304E   26004.83335648 -.00006594  00000+0 -10457-3 0  9990
2 67196  70.0001 342.3820 0003566 261.0684 215.3571 15.52510303  4180
STARLINK-36283          
1 67197U 25304F   26004.83335648  .00180812  00000+0  28941-2 0  9991
2 67197  69.9997 342.3774 0003102 247.8273 232.4826 15.52338866  4187
STARLINK-36267          
1 67198U 25304G   26004.83335648  .00167697  00000+0  26880-2 0  9998
2 67198  69.9998 342.3797 0003153 249.3202 229.0808 15.52347729  4156
STARLINK-36268          
1 67199U 25304H   26004.83335648  .00172062  00000+0  27566-2 0  9993
2 67199  69.9997 342.3749 0003074 251.1252 231.1018 15.52344578  4180
STARLINK-36270          
1 67200U 25304J   26004.83335648 -.00094315  00000+0 -15457-2 0  9998
2 67200  69.9999 342.3732 0002988 263.5091 220.5643 15.52571259  4182
STARLINK-36262          
1 67201U 25304K   26004.83335648 -.00003036  00000+0 -46673-4 0  9995
2 67201  69.9998 342.3709 0003552 262.4167 223.5896 15.52501967  4188
STARLINK-36263          
1 67202U 25304L   26004.83335648 -.00133580  00000+0 -21998-2 0  9995
2 67202  69.9995 342.3691 0003216 262.5682 225.3383 15.52587435  4181
STARLINK-36224          
1 67203U 25304M   26004.83335648 -.00056719  00000+0 -92515-3 0  9998
2 67203  69.9997 342.3654 0003280 264.4420 225.3998 15.52538515  4182
STARLINK-36185          
1 67204U 25304N   26004.83335648 -.00088350  00000+0 -14477-2 0  9995
2 67204  69.9995 342.3625 0003216 263.3078 228.4537 15.52550526  4184
STARLINK-36197          
1 67205U 25304P   26004.83335648 -.00059027  00000+0 -96314-3 0  9996
2 67205  69.9998 342.3608 0003202 264.5762 229.0962 15.52540342  4158
